STARLINK-36122          
1 66952U 25286AD  25359.16668980 -.02010060  00000+0 -26459-1 0  9996
2 66952  53.1598 348.3549 0001014  86.5093 290.2140 15.61302060  3986
HULIANWANG DIGUI-114    
1 66953U 25287A   25354.38141962  .00000019  00000+0  30336-5 0  9995
2 66953  86.4960 343.3747 0009673 185.0352 175.0710 13.66161866  1572
HULIANWANG DIGUI-115    
1 66954U 25287B   25358.92426492  .00000023  00000+0  84421-5 0  9993
2 66954  86.5036 341.7372 0003385 109.9724 250.1798 13.63539042  2198
HULIANWANG DIGUI-116    
1 66955U 25287C   25358.99508699  .00000148  00000+0  16529-3 0  9991
2 66955  86.4919 341.6856 0001633  94.3011 265.8333 13.64194122  2201
HULIANWANG DIGUI-117    
1 66956U 25287D   25352.62166759  .00000026  00000+0  10922-4 0  9990
2 66956  86.4971 344.0126 0007676 176.3616 183.7600 13.67770338  1332
HULIANWANG DIGUI-118    
1 66957U 25287E   25355.03488252  .00000128  00000+0  13223-3 0  9993
2 66957  86.4946 343.1304 0005472 170.9065 189.2194 13.67510110  1668
CZ-6A R/B               
1 66958U 25287F   25358.89745333  .00000073  00000+0  38656-4 0  9994
2 66958  86.5065 341.4787 0107129  65.6108 295.6201 13.94921413  2235
STARLINK-35887          
1 66959U 25288A   25359.16668980 -.01994303  00000+0 -21592-1 0  9998
2 66959  42.9998  91.3877 0001210 269.4372 270.3026 15.65946645  3824
STARLINK-35879          
1 66960U 25288B   25359.16668980 -.01992370  00000+0 -21570-1 0  9998
2 66960  42.9998  91.3827 0001257 268.5282 273.1305 15.65944199  3825
STARLINK-35761          
1 66961U 25288C   25359.16668980 -.01993546  00000+0 -21584-1 0  9990
2 66961  43.0000  91.3779 0001153 267.3579 276.2172 15.65945908  3824
STARLINK-35874          
1 66962U 25288D   25359.16668980 -.01992692  00000+0 -21574-1 0  9991
2 66962  43.0001  91.3726 0001220 267.6904 277.8025 15.65944860  3828
STARLINK-36133          
1 66963U 25288E   25359.16668980 -.01998847  00000+0 -21648-1 0  9992
2 66963  43.0003  91.3680 0001236 271.4252 275.9857 15.65947261  3826
