CCSDS_OMM_VERS = 2.0
CREATION_DATE  = 
ORIGINATOR     = 

OBJECT_NAME    = STARLINK-36122
OBJECT_ID      = 2025-286AD
CENTER_NAME    = EARTH
REF_FRAME      = TEME
TIME_SYSTEM    = UTC
MEAN_ELEMENT_THEORY = SGP/SGP4

EPOCH          = 2025-12-25T04:00:01.998720
MEAN_MOTION    = 15.61302060
ECCENTRICITY   = .0001014
INCLINATION    = 53.1598
RA_OF_ASC_NODE = 348.3549
ARG_OF_PERICENTER = 86.5093
MEAN_ANOMALY   = 290.2140

EPHEMERIS_TYPE = 0
CLASSIFICATION_TYPE = U
NORAD_CAT_ID   = 66952
ELEMENT_SET_NO = 999
REV_AT_EPOCH   = 398
BSTAR          = -.26459E-1
MEAN_MOTION_DOT = -.201006E-1
MEAN_MOTION_DDOT = 0

CCSDS_OMM_VERS = 2.0
CREATION_DATE  = 
ORIGINATOR     = 

OBJECT_NAME    = HULIANWANG DIGUI-114
OBJECT_ID      = 2025-287A
CENTER_NAME    = EARTH
REF_FRAME      = TEME
TIME_SYSTEM    = UTC
MEAN_ELEMENT_THEORY = SGP/SGP4

EPOCH          = 2025-12-20T09:09:14.655168
MEAN_MOTION    = 13.66161866
ECCENTRICITY   = .00096738
INCLINATION    = 86.4960
RA_OF_ASC_NODE = 343.3747
ARG_OF_PERICENTER = 185.0352
MEAN_ANOMALY   = 175.0710

EPHEMERIS_TYPE = 0
CLASSIFICATION_TYPE = U
NORAD_CAT_ID   = 66953
ELEMENT_SET_NO = 999
REV_AT_EPOCH   = 157
BSTAR          = .3033618E-5
MEAN_MOTION_DOT = .19E-6
MEAN_MOTION_DDOT = 0

CCSDS_OMM_VERS = 2.0
CREATION_DATE  = 
ORIGINATOR     = 

OBJECT_NAME    = HULIANWANG DIGUI-115
OBJECT_ID      = 2025-287B
CENTER_NAME    = EARTH
REF_FRAME      = TEME
TIME_SYSTEM    = UTC
MEAN_ELEMENT_THEORY = SGP/SGP4

EPOCH          = 2025-12-24T22:10:56.489088
MEAN_MOTION    = 13.63539042
ECCENTRICITY   = .0003385
INCLINATION    = 86.5036
RA_OF_ASC_NODE = 341.7372
ARG_OF_PERICENTER = 109.9724
MEAN_ANOMALY   = 250.1798

EPHEMERIS_TYPE = 0
CLASSIFICATION_TYPE = U
NORAD_CAT_ID   = 66954
ELEMENT_SET_NO = 999
REV_AT_EPOCH   = 219
BSTAR          = .8442119E-5
MEAN_MOTION_DOT = .23E-6
MEAN_MOTION_DDOT = 0

CCSDS_OMM_VERS = 2.0
CREATION_DATE  = 
ORIGINATOR     = 

OBJECT_NAME    = HULIANWANG DIGUI-116
OBJECT_ID      = 2025-287C
CENTER_NAME    = EARTH
REF_FRAME      = TEME
TIME_SYSTEM    = UTC
MEAN_ELEMENT_THEORY = SGP/SGP4

EPOCH          = 2025-12-24T23:52:55.515936
MEAN_MOTION    = 13.64194122
ECCENTRICITY   = .00016332
INCLINATION    = 86.4919
RA_OF_ASC_NODE = 341.6856
ARG_OF_PERICENTER = 94.3011
MEAN_ANOMALY   = 265.8333

EPHEMERIS_TYPE = 0
CLASSIFICATION_TYPE = U
NORAD_CAT_ID   = 66955
ELEMENT_SET_NO = 999
REV_AT_EPOCH   = 220
BSTAR          = .1652864E-3
MEAN_MOTION_DOT = .148E-5
MEAN_MOTION_DDOT = 0

CCSDS_OMM_VERS = 2.0
CREATION_DATE  = 
ORIGINATOR     = 

OBJECT_NAME    = HULIANWANG DIGUI-117
OBJECT_ID      = 2025-287D
CENTER_NAME    = EARTH
REF_FRAME      = TEME
TIME_SYSTEM    = UTC
MEAN_ELEMENT_THEORY = SGP/SGP4

EPOCH          = 2025-12-18T14:55:12.079776
MEAN_MOTION    = 13.67770338
ECCENTRICITY   = .00076767
INCLINATION    = 86.4971
RA_OF_ASC_NODE = 344.0126
ARG_OF_PERICENTER = 176.3616
MEAN_ANOMALY   = 183.7600

EPHEMERIS_TYPE = 0
CLASSIFICATION_TYPE = U
NORAD_CAT_ID   = 66956
ELEMENT_SET_NO = 999
REV_AT_EPOCH   = 133
BSTAR          = .10922436E-4
MEAN_MOTION_DOT = .26E-6
MEAN_MOTION_DDOT = 0

CCSDS_OMM_VERS = 2.0
CREATION_DATE  = 
ORIGINATOR     = 

OBJECT_NAME    = HULIANWANG DIGUI-118
OBJECT_ID      = 2025-287E
CENTER_NAME    = EARTH
REF_FRAME      = TEME
TIME_SYSTEM    = UTC
MEAN_ELEMENT_THEORY = SGP/SGP4

EPOCH          = 2025-12-21T00:50:13.849728
MEAN_MOTION    = 13.67510110
ECCENTRICITY   = .00054729
INCLINATION    = 86.4946
RA_OF_ASC_NODE = 343.1304
ARG_OF_PERICENTER = 170.9065
MEAN_ANOMALY   = 189.2194

EPHEMERIS_TYPE = 0
CLASSIFICATION_TYPE = U
NORAD_CAT_ID   = 66957
ELEMENT_SET_NO = 999
REV_AT_EPOCH   = 166
BSTAR          = .13223305E-3
MEAN_MOTION_DOT = .128E-5
MEAN_MOTION_DDOT = 0

CCSDS_OMM_VERS = 2.0
CREATION_DATE  = 
ORIGINATOR     = 

OBJECT_NAME    = CZ-6A R/B
OBJECT_ID      = 2025-287F
CENTER_NAME    = EARTH
REF_FRAME      = TEME
TIME_SYSTEM    = UTC
MEAN_ELEMENT_THEORY = SGP/SGP4

EPOCH          = 2025-12-24T21:32:19.967712
MEAN_MOTION    = 13.94921413
ECCENTRICITY   = .01071296
INCLINATION    = 86.5065
RA_OF_ASC_NODE = 341.4787
ARG_OF_PERICENTER = 65.6108
MEAN_ANOMALY   = 295.6201

EPHEMERIS_TYPE = 0
CLASSIFICATION_TYPE = U
NORAD_CAT_ID   = 66958
ELEMENT_SET_NO = 999
REV_AT_EPOCH   = 223
BSTAR          = .38656345E-4
MEAN_MOTION_DOT = .73E-6
MEAN_MOTION_DDOT = 0

CCSDS_OMM_VERS = 2.0
CREATION_DATE  = 
ORIGINATOR     = 

OBJECT_NAME    = STARLINK-35887
OBJECT_ID      = 2025-288A
CENTER_NAME    = EARTH
REF_FRAME      = TEME
TIME_SYSTEM    = UTC
MEAN_ELEMENT_THEORY = SGP/SGP4

EPOCH          = 2025-12-25T04:00:01.998720
MEAN_MOTION    = 15.65946645
ECCENTRICITY   = .000121
INCLINATION    = 42.9998
RA_OF_ASC_NODE = 91.3877
ARG_OF_PERICENTER = 269.4372
MEAN_ANOMALY   = 270.3026

EPHEMERIS_TYPE = 0
CLASSIFICATION_TYPE = U
NORAD_CAT_ID   = 66959
ELEMENT_SET_NO = 999
REV_AT_EPOCH   = 382
BSTAR          = -.21592E-1
MEAN_MOTION_DOT = -.1994303E-1
MEAN_MOTION_DDOT = 0

CCSDS_OMM_VERS = 2.0
CREATION_DATE  = 
ORIGINATOR     = 

OBJECT_NAME    = STARLINK-35879
OBJECT_ID      = 2025-288B
CENTER_NAME    = EARTH
REF_FRAME      = TEME
TIME_SYSTEM    = UTC
MEAN_ELEMENT_THEORY = SGP/SGP4

EPOCH          = 2025-12-25T04:00:01.998720
MEAN_MOTION    = 15.65944199
ECCENTRICITY   = .0001257
INCLINATION    = 42.9998
RA_OF_ASC_NODE = 91.3827
ARG_OF_PERICENTER = 268.5282
MEAN_ANOMALY   = 273.1305

EPHEMERIS_TYPE = 0
CLASSIFICATION_TYPE = U
NORAD_CAT_ID   = 66960
ELEMENT_SET_NO = 999
REV_AT_EPOCH   = 382
BSTAR          = -.2157E-1
MEAN_MOTION_DOT = -.199237E-1
MEAN_MOTION_DDOT = 0

CCSDS_OMM_VERS = 2.0
CREATION_DATE  = 
ORIGINATOR     = 

OBJECT_NAME    = STARLINK-35761
OBJECT_ID      = 2025-288C
CENTER_NAME    = EARTH
REF_FRAME      = TEME
TIME_SYSTEM    = UTC
MEAN_ELEMENT_THEORY = SGP/SGP4

EPOCH          = 2025-12-25T04:00:01.998720
MEAN_MOTION    = 15.65945908
ECCENTRICITY   = .0001153
INCLINATION    = 43.0000
RA_OF_ASC_NODE = 91.3779
ARG_OF_PERICENTER = 267.3579
MEAN_ANOMALY   = 276.2172

EPHEMERIS_TYPE = 0
CLASSIFICATION_TYPE = U
NORAD_CAT_ID   = 66961
ELEMENT_SET_NO = 999
REV_AT_EPOCH   = 382
BSTAR          = -.21584E-1
MEAN_MOTION_DOT = -.1993546E-1
MEAN_MOTION_DDOT = 0

CCSDS_OMM_VERS = 2.0
CREATION_DATE  = 
ORIGINATOR     = 

OBJECT_NAME    = STARLINK-35874
OBJECT_ID      = 2025-288D
CENTER_NAME    = EARTH
REF_FRAME      = TEME
TIME_SYSTEM    = UTC
MEAN_ELEMENT_THEORY = SGP/SGP4

EPOCH          = 2025-12-25T04:00:01.998720
MEAN_MOTION    = 15.65944860
ECCENTRICITY   = .000122
INCLINATION    = 43.0001
RA_OF_ASC_NODE = 91.3726
ARG_OF_PERICENTER = 267.6904
MEAN_ANOMALY   = 277.8025

EPHEMERIS_TYPE = 0
CLASSIFICATION_TYPE = U
NORAD_CAT_ID   = 66962
ELEMENT_SET_NO = 999
REV_AT_EPOCH   = 382
BSTAR          = -.21574E-1
MEAN_MOTION_DOT = -.1992692E-1
MEAN_MOTION_DDOT = 0

CCSDS_OMM_VERS = 2.0
CREATION_DATE  = 
ORIGINATOR     = 

OBJECT_NAME    = STARLINK-36133
OBJECT_ID      = 2025-288E
CENTER_NAME    = EARTH
REF_FRAME      = TEME
TIME_SYSTEM    = UTC
MEAN_ELEMENT_THEORY = SGP/SGP4

EPOCH          = 2025-12-25T04:00:01.998720
MEAN_MOTION    = 15.65947261
ECCENTRICITY   = .0001236
INCLINATION    = 43.0003
RA_OF_ASC_NODE = 91.3680
ARG_OF_PERICENTER = 271.4252
MEAN_ANOMALY   = 275.9857

EPHEMERIS_TYPE = 0
CLASSIFICATION_TYPE = U
NORAD_CAT_ID   = 66963
ELEMENT_SET_NO = 999
REV_AT_EPOCH   = 382
BSTAR          = -.21648E-1
MEAN_MOTION_DOT = -.1998847E-1
MEAN_MOTION_DDOT = 0

